XW-2F
1 40910U 15049M   17005.83904223  .00001634  00000-0  90871-4 0  9990
2 40910  97.4534  14.8761 0017095  56.7051 303.5816 15.14967298 71568
XW-2B
1 40911U 15049N   17005.82010241  .00001086  00000-0  62834-4 0  9997
2 40911  97.4553  14.7083 0016118  58.7587 301.5221 15.14224348 71567
DCBB
1 40912U 15049P   17005.78829823  .00001597  00000-0  83960-4 0  9997
2 40912  97.4515  16.1956 0017291  51.7373  35.6243 15.17002315 71661
TW-1C
1 40926U 15051B   17005.77215567  .00007153  00000-0  18032-3 0  9999
2 40926  97.2517  46.7021 0014234  43.6913  68.8783 15.40074172 71902
TW-1A
1 40928U 15051D   17005.74796807  .00002841  00000-0  86277-4 0  9995
2 40928  97.2469  44.4451 0014838  64.0443  29.1834 15.34798996 71779
IO-86
1 40931U 15052B   17004.91510433  .00000639  00000-0  80740-7 0  9992
2 40931   6.0017 316.8679 0012808  91.1886 268.9761 14.76505085 68795
GomX-3
1 40949U 98067HA  16292.18357804  .08527750  12374-4  77882-3 0  9992
2 40949  51.6055 106.7696 0006699 286.1344  73.8944 16.38002265 59645
LQSat
1 40958U 15057A   17005.89073938  .00000043  00000-0  14539-4 0  9997
2 40958  97.9960  83.9145 0017182 223.3244 136.6588 14.72935478 67221
AO-85
1 40967U 15058D   17005.48650103  .00000128  00000-0  33868-4 0 03587
2 40967 064.7772 352.3533 0179893 137.8886 223.6205 14.75286896053119
ATHENOXAT-1
1 41168U 15077C   17005.90299030  .00002410  00000-0  10114-3 0  9992
2 41168  14.9927 274.4367 0012278 288.6862 145.3709 15.10952437 58455
ChubuSat-2
1 41338U 16012B   17005.48267824  .00000519  00000-0  34201-4 0  9992
2 41338  31.0041  65.5060 0013989 249.3594 110.5541 14.99612632 48549
ChubuSat-3
1 41339U 16012C   17005.83299960  .00000426  00000-0  26735-4 0  9998
2 41339  31.0114  62.6932 0013964 259.1929 100.7147 14.99827556 48570
Horyu-4
1 41340U 16012D   17005.53960504  .00000799  00000-0  55241-4 0  9993
2 41340  31.0060  63.0702 0014285 262.8981  97.0030 15.00385899 48568
OUFTI-1
1 41458U 16025C   17005.11154365  .00001089  00000-0  62933-4 0  9990
2 41458  98.2019  33.2837 0178185 113.7316 248.2712 15.02349949 38082
e-st at r-II
1 41459U 16025D   17005.18515851  .00000852  00000-0  49990-4 0  9994
2 41459  98.2044  33.3383 0180294 114.4651 247.5496 15.02261323 38093
AAUSAT4
1 41460U 16025E   17005.72913618  .00002132  00000-0  11923-3 0  9996
2 41460  98.1988  33.9552 0172800 111.0199 250.9590 15.02869864 38186
MinXSS
1 41474U 98067HU  17005.51102424  .00062314  00000-0  45707-3 0  9994
2 41474  51.6419 114.6378 0002012 230.6854 129.3966 15.72536994 36591
CADRE
1 41475U 98067HV  17003.74787607  .12518598  12537-4  55989-3 0  9998
2 41475  51.6110 110.0165 0004040 312.3134  47.7551 16.43344525 36494
NODES 1
1 41477U 98067HX  17005.51060647  .00033539  00000-0  31171-3 0  9994
2 41477  51.6362 118.3281 0001741 190.3304 169.7657 15.67090598 36454
NODES 2
1 41478U 98067HY  17005.84041795  .00030877  00000-0  28910-3 0  9993
2 41478  51.6360 116.7795 0001621 192.0470 168.0488 15.66951266 36502
LO-87
1 41557U 16033B   17005.86246292  .00002110  00000-0  83829-4 0  9995
2 41557  97.4791  85.3362 0013664 214.5841 145.4510 15.26388267 33669
NuSat2
1 41558U 16033C   17005.81668084  .00002234  00000-0  88912-4 0  9993
2 41558  97.4818  85.3168 0013182 213.2730 146.7681 15.26259849 33657
Lapan A3
1 41603U 16040E   17005.89073539  .00000380  00000-0  21308-4 0  9991
2 41603  97.4848  69.6070 0012088 283.6085 162.6617 15.19236416 30016
Swayam
1 41607U 16040J   17005.10898441  .00001860  00000-0  89362-4 0  9994
2 41607  97.4836  68.8750 0013084 287.8572  72.1236 15.20035042 29820
Pratham
1 41783U 16059A   17005.77453319 -.00000042  00000-0  15304-5 0  9991
2 41783  98.1883  68.6345 0033019 311.2351  48.6024 14.62794010 14852
AlSat 1N
1 41789U 16059G   17005.89674634  .00000122  00000-0  32545-4 0  9998
2 41789  98.1914  68.9497 0027322 306.2817  53.5851 14.63995621 14861
ScatSat
1 41790U 16059H   17005.14393918 -.00000007  00000-0  91264-5 0  9998
2 41790  98.0901  61.8852 0010111 291.4586  68.5530 14.50088954 14634
TY-1
1 41844U 16066D   17005.86950823 -.00000070  00000-0  00000 0 0  9991
2 41844  97.4052  15.5385 0017866  87.6255   9.1257 15.21578220  8654
CAS-2T
1 41845U 16066E   17005.82335184 -.00000071  00000-0  00000 0 0  9996
2 41845  98.7815  17.5389 0367570  10.2141 350.6275 14.37678699  8165
Pegasus-1
1 41846U 16066F   17005.64870824 -.00000071  00000-0  00000 0 0  9992
2 41846  98.7853  17.3031 0370112  11.4276 349.5031 14.36825876  8132
STARS-C
1 41895U 98067KR  17005.73002489  .00010973  00000-0  16841-3 0  9996
2 41895  51.6437 128.0793 0005770  72.5347 287.6379 15.54827014  2665
BY70-1
1 41909U 16083C   17005.79282619  .00401843  23582-5  77937-3 0  9999
2 41909  97.5844  83.9725 0204992 334.5270  24.6069 15.72470908  1344
